[{"OBJECT_NAME":"STARLINK-4617","OBJECT_ID":"2022-105AD","EPOCH":"2026-03-09T15:56:02.750208","MEAN_MOTION":15.05643926,"ECCENTRICITY":0.00021821,"INCLINATION":97.6021,"RA_OF_ASC_NODE":311.2583,"ARG_OF_PERICENTER":85.5517,"MEAN_ANOMALY":274.5959,"EPHEMERIS_TYPE":0,"CLASSIFICATION_TYPE":"U","NORAD_CAT_ID":53675,"ELEMENT_SET_NO":999,"REV_AT_EPOCH":19330,"BSTAR":-2.16156e-6,"MEAN_MOTION_DOT":-9.2e-7,"MEAN_MOTION_DDOT":0},{"OBJECT_NAME":"CZ-6A DEB","OBJECT_ID":"2022-151AAS","EPOCH":"2026-03-09T03:45:24.122016","MEAN_MOTION":15.06999256,"ECCENTRICITY":0.00393195,"INCLINATION":98.6364,"RA_OF_ASC_NODE":147.7741,"ARG_OF_PERICENTER":181.1546,"MEAN_ANOMALY":178.9594,"EPHEMERIS_TYPE":0,"CLASSIFICATION_TYPE":"U","NORAD_CAT_ID":55894,"ELEMENT_SET_NO":999,"REV_AT_EPOCH":17150,"BSTAR":0.0072812999,"MEAN_MOTION_DOT":0.00112507,"MEAN_MOTION_DDOT":0}]
